[{"OBJECT_NAME":"FLYING LAPTOP","OBJECT_ID":"2017-042G","EPOCH":"2026-03-09T23:28:27.762240","MEAN_MOTION":15.00523488,"ECCENTRICITY":0.00192138,"INCLINATION":97.4274,"RA_OF_ASC_NODE":228.6392,"ARG_OF_PERICENTER":94.5564,"MEAN_ANOMALY":265.7856,"EPHEMERIS_TYPE":0,"CLASSIFICATION_TYPE":"U","NORAD_CAT_ID":42831,"ELEMENT_SET_NO":999,"REV_AT_EPOCH":47157,"BSTAR":0.00042943592,"MEAN_MOTION_DOT":5.379e-5,"MEAN_MOTION_DDOT":0},{"OBJECT_NAME":"STARLINK-5833","OBJECT_ID":"2023-028AJ","EPOCH":"2026-03-09T16:57:55.674432","MEAN_MOTION":14.98333799,"ECCENTRICITY":0.00030462,"INCLINATION":70.0002,"RA_OF_ASC_NODE":224.4904,"ARG_OF_PERICENTER":270.7913,"MEAN_ANOMALY":89.2897,"EPHEMERIS_TYPE":0,"CLASSIFICATION_TYPE":"U","NORAD_CAT_ID":55773,"ELEMENT_SET_NO":999,"REV_AT_EPOCH":16653,"BSTAR":5.3827402e-5,"MEAN_MOTION_DOT":5.49e-6,"MEAN_MOTION_DDOT":0}]
